TDRS 3                  
1 19548U 88091B   26057.84610155 -.00000306  00000+0  00000+0 0  9991
2 19548  12.6852 341.7287 0044225 351.9002  78.3575  1.00261626124288
FLTSATCOM 8 (USA 46)    
1 20253U 89077A   26061.80591641 -.00000378  00000+0  00000+0 0  9999
2 20253  12.4506 351.7998 0008642 334.0092 250.4423  1.00263860259490
SKYNET 4C               
1 20776U 90079A   26061.94485713  .00000117  00000+0  00000+0 0  9990
2 20776  13.3723 350.5381 0004063 332.5598 211.1359  1.00270076129823
TDRS 5                  
1 21639U 91054B   26061.54766797  .00000074  00000+0  00000+0 0  9995
2 21639  14.0843 354.5670 0011089 277.1432 278.2866  1.00265486126648
TDRS 6                  
1 22314U 93003B   26062.00996572 -.00000305  00000+0  00000+0 0  9998
2 22314  14.1806 357.8450 0005594 201.2460 279.2715  1.00279261121346
UFO 2 (USA 95)          
1 22787U 93056A   26062.00630145  .00000115  00000+0  00000+0 0  9999
2 22787  11.8577   4.1284 0008856 335.6735 211.8911  1.00272221117486
USA 99 (MILSTAR-1 1)    
1 22988U 94009A   26062.04716120 -.00000208  00000+0  00000+0 0  9997
2 22988  17.4606  28.8510 0004289 303.8855 115.0808  1.00273100 31892
UFO 4 (USA 108)         
1 23467U 95003A   26062.12146009 -.00000033  00000+0  00000+0 0  9993
2 23467   9.6702  13.5729 0003572 330.9121  32.4100  1.00272653113899
TDRS 7                  
1 23613U 95035B   26061.61691294 -.00000249  00000+0  00000+0 0  9994
2 23613  13.4211 348.9207 0008125  47.1447  75.4029  1.00276971112188
USA 115 (MILSTAR-1 2)   
1 23712U 95060A   26061.49141941 -.00000031  00000+0  00000+0 0  9996
2 23712  14.0348   4.5392 0004062 336.2684 236.3904  1.00274661 31811
INMARSAT 3-F1           
1 23839U 96020A   26062.02073865  .00000010  00000+0  00000+0 0  9998
2 23839  10.3809  47.5960 0006075 269.8401 222.4812  0.99996844109196
INMARSAT 3-F2           
1 24307U 96053A   26061.99547667 -.00000073  00000+0  00000+0 0  9996
2 24307   9.6166  55.0012 0006060 291.3471  69.0210  0.99978354107851
INMARSAT 3-F3           
1 24674U 96070A   26061.82822588 -.00000245  00000+0  00000+0 0  9993
2 24674  10.0890  50.6565 0006893 269.9178 291.0357  1.00001906106841
AMC-3                   
1 24936U 97050A   26062.00171671 -.00000274  00000+0  00000+0 0  9996
2 24936   7.8863  65.2894 0003449 283.7763 100.3151  1.00272075 51379
USA 134                 
1 25019U 97065A   26062.09623947 -.00000073  00000+0  00000+0 0  9999
2 25019  12.6588  22.5081 0007024 305.5371 115.3615  1.00271057 31890
INMARSAT 3-F5           
1 25153U 98006B   26061.86266843 -.00000302  00000+0  00000+0 0  9991
2 25153   9.4564  54.3004 0005367 293.1660  69.6941  1.00268386102833
ABS-6                   
1 25924U 99053A   26061.75615093 -.00000136  00000+0  00000+0 0  9998
2 25924   0.0503 261.4494 0003132  58.9705 271.3401  1.00272451 96774
