[{"OBJECT_NAME":"TDRS 3","OBJECT_ID":"1988-091B","EPOCH":"2026-02-26T20:18:23.173920","MEAN_MOTION":1.00261626,"ECCENTRICITY":0.0044225,"INCLINATION":12.6852,"RA_OF_ASC_NODE":341.7287,"ARG_OF_PERICENTER":351.9002,"MEAN_ANOMALY":78.3575,"EPHEMERIS_TYPE":0,"CLASSIFICATION_TYPE":"U","NORAD_CAT_ID":19548,"ELEMENT_SET_NO":999,"REV_AT_EPOCH":12428,"BSTAR":0,"MEAN_MOTION_DOT":-3.06e-6,"MEAN_MOTION_DDOT":0},{"OBJECT_NAME":"FLTSATCOM 8 (USA 46)","OBJECT_ID":"1989-077A","EPOCH":"2026-03-02T19:20:31.177824","MEAN_MOTION":1.0026386,"ECCENTRICITY":0.00086423,"INCLINATION":12.4506,"RA_OF_ASC_NODE":351.7998,"ARG_OF_PERICENTER":334.0092,"MEAN_ANOMALY":250.4423,"EPHEMERIS_TYPE":0,"CLASSIFICATION_TYPE":"U","NORAD_CAT_ID":20253,"ELEMENT_SET_NO":999,"REV_AT_EPOCH":25949,"BSTAR":0,"MEAN_MOTION_DOT":-3.78e-6,"MEAN_MOTION_DDOT":0},{"OBJECT_NAME":"SKYNET 4C","OBJECT_ID":"1990-079A","EPOCH":"2026-03-02T22:40:35.656032","MEAN_MOTION":1.00270076,"ECCENTRICITY":0.0004063,"INCLINATION":13.3723,"RA_OF_ASC_NODE":350.5381,"ARG_OF_PERICENTER":332.5598,"MEAN_ANOMALY":211.1359,"EPHEMERIS_TYPE":0,"CLASSIFICATION_TYPE":"U","NORAD_CAT_ID":20776,"ELEMENT_SET_NO":999,"REV_AT_EPOCH":12982,"BSTAR":0,"MEAN_MOTION_DOT":1.17e-6,"MEAN_MOTION_DDOT":0},{"OBJECT_NAME":"TDRS 5","OBJECT_ID":"1991-054B","EPOCH":"2026-03-02T13:08:38.512608","MEAN_MOTION":1.00265486,"ECCENTRICITY":0.0011089,"INCLINATION":14.0843,"RA_OF_ASC_NODE":354.567,"ARG_OF_PERICENTER":277.1432,"MEAN_ANOMALY":278.2866,"EPHEMERIS_TYPE":0,"CLASSIFICATION_TYPE":"U","NORAD_CAT_ID":21639,"ELEMENT_SET_NO":999,"REV_AT_EPOCH":12664,"BSTAR":0,"MEAN_MOTION_DOT":7.4e-7,"MEAN_MOTION_DDOT":0},{"OBJECT_NAME":"TDRS 6","OBJECT_ID":"1993-003B","EPOCH":"2026-03-03T00:14:21.038208","MEAN_MOTION":1.00279261,"ECCENTRICITY":0.0005594,"INCLINATION":14.1806,"RA_OF_ASC_NODE":357.845,"ARG_OF_PERICENTER":201.246,"MEAN_ANOMALY":279.2715,"EPHEMERIS_TYPE":0,"CLASSIFICATION_TYPE":"U","NORAD_CAT_ID":22314,"ELEMENT_SET_NO":999,"REV_AT_EPOCH":12134,"BSTAR":0,"MEAN_MOTION_DOT":-3.05e-6,"MEAN_MOTION_DDOT":0},{"OBJECT_NAME":"UFO 2 (USA 95)","OBJECT_ID":"1993-056A","EPOCH":"2026-03-03T00:09:04.445280","MEAN_MOTION":1.00272221,"ECCENTRICITY":0.0008856,"INCLINATION":11.8577,"RA_OF_ASC_NODE":4.1284,"ARG_OF_PERICENTER":335.6735,"MEAN_ANOMALY":211.8911,"EPHEMERIS_TYPE":0,"CLASSIFICATION_TYPE":"U","NORAD_CAT_ID":22787,"ELEMENT_SET_NO":999,"REV_AT_EPOCH":11748,"BSTAR":0,"MEAN_MOTION_DOT":1.15e-6,"MEAN_MOTION_DDOT":0},{"OBJECT_NAME":"USA 99 (MILSTAR-1 1)","OBJECT_ID":"1994-009A","EPOCH":"2026-03-03T01:07:54.727680","MEAN_MOTION":1.002731,"ECCENTRICITY":0.0004289,"INCLINATION":17.4606,"RA_OF_ASC_NODE":28.851,"ARG_OF_PERICENTER":303.8855,"MEAN_ANOMALY":115.0808,"EPHEMERIS_TYPE":0,"CLASSIFICATION_TYPE":"U","NORAD_CAT_ID":22988,"ELEMENT_SET_NO":999,"REV_AT_EPOCH":3189,"BSTAR":0,"MEAN_MOTION_DOT":-2.08e-6,"MEAN_MOTION_DDOT":0},{"OBJECT_NAME":"UFO 4 (USA 108)","OBJECT_ID":"1995-003A","EPOCH":"2026-03-03T02:54:54.151776","MEAN_MOTION":1.00272653,"ECCENTRICITY":0.0003572,"INCLINATION":9.6702,"RA_OF_ASC_NODE":13.5729,"ARG_OF_PERICENTER":330.9121,"MEAN_ANOMALY":32.41,"EPHEMERIS_TYPE":0,"CLASSIFICATION_TYPE":"U","NORAD_CAT_ID":23467,"ELEMENT_SET_NO":999,"REV_AT_EPOCH":11389,"BSTAR":0,"MEAN_MOTION_DOT":-3.3e-7,"MEAN_MOTION_DDOT":0},{"OBJECT_NAME":"TDRS 7","OBJECT_ID":"1995-035B","EPOCH":"2026-03-02T14:48:21.278016","MEAN_MOTION":1.00276971,"ECCENTRICITY":0.0008125,"INCLINATION":13.4211,"RA_OF_ASC_NODE":348.9207,"ARG_OF_PERICENTER":47.1447,"MEAN_ANOMALY":75.4029,"EPHEMERIS_TYPE":0,"CLASSIFICATION_TYPE":"U","NORAD_CAT_ID":23613,"ELEMENT_SET_NO":999,"REV_AT_EPOCH":11218,"BSTAR":0,"MEAN_MOTION_DOT":-2.49e-6,"MEAN_MOTION_DDOT":0},{"OBJECT_NAME":"USA 115 (MILSTAR-1 2)","OBJECT_ID":"1995-060A","EPOCH":"2026-03-02T11:47:38.637024","MEAN_MOTION":1.00274661,"ECCENTRICITY":0.0004062,"INCLINATION":14.0348,"RA_OF_ASC_NODE":4.5392,"ARG_OF_PERICENTER":336.2684,"MEAN_ANOMALY":236.3904,"EPHEMERIS_TYPE":0,"CLASSIFICATION_TYPE":"U","NORAD_CAT_ID":23712,"ELEMENT_SET_NO":999,"REV_AT_EPOCH":3181,"BSTAR":0,"MEAN_MOTION_DOT":-3.1e-7,"MEAN_MOTION_DDOT":0},{"OBJECT_NAME":"INMARSAT 3-F1","OBJECT_ID":"1996-020A","EPOCH":"2026-03-03T00:29:51.819360","MEAN_MOTION":0.99996844,"ECCENTRICITY":0.0006075,"INCLINATION":10.3809,"RA_OF_ASC_NODE":47.596,"ARG_OF_PERICENTER":269.8401,"MEAN_ANOMALY":222.4812,"EPHEMERIS_TYPE":0,"CLASSIFICATION_TYPE":"U","NORAD_CAT_ID":23839,"ELEMENT_SET_NO":999,"REV_AT_EPOCH":10919,"BSTAR":0,"MEAN_MOTION_DOT":1.0e-7,"MEAN_MOTION_DDOT":0},{"OBJECT_NAME":"INMARSAT 3-F2","OBJECT_ID":"1996-053A","EPOCH":"2026-03-02T23:53:29.184288","MEAN_MOTION":0.99978354,"ECCENTRICITY":0.000606,"INCLINATION":9.6166,"RA_OF_ASC_NODE":55.0012,"ARG_OF_PERICENTER":291.3471,"MEAN_ANOMALY":69.021,"EPHEMERIS_TYPE":0,"CLASSIFICATION_TYPE":"U","NORAD_CAT_ID":24307,"ELEMENT_SET_NO":999,"REV_AT_EPOCH":10785,"BSTAR":0,"MEAN_MOTION_DOT":-7.3e-7,"MEAN_MOTION_DDOT":0},{"OBJECT_NAME":"INMARSAT 3-F3","OBJECT_ID":"1996-070A","EPOCH":"2026-03-02T19:52:38.716032","MEAN_MOTION":1.00001906,"ECCENTRICITY":0.00068939,"INCLINATION":10.089,"RA_OF_ASC_NODE":50.6565,"ARG_OF_PERICENTER":269.9178,"MEAN_ANOMALY":291.0357,"EPHEMERIS_TYPE":0,"CLASSIFICATION_TYPE":"U","NORAD_CAT_ID":24674,"ELEMENT_SET_NO":999,"REV_AT_EPOCH":10684,"BSTAR":0,"MEAN_MOTION_DOT":-2.45e-6,"MEAN_MOTION_DDOT":0},{"OBJECT_NAME":"AMC-3","OBJECT_ID":"1997-050A","EPOCH":"2026-03-03T00:02:28.323744","MEAN_MOTION":1.00272075,"ECCENTRICITY":0.0003449,"INCLINATION":7.8863,"RA_OF_ASC_NODE":65.2894,"ARG_OF_PERICENTER":283.7763,"MEAN_ANOMALY":100.3151,"EPHEMERIS_TYPE":0,"CLASSIFICATION_TYPE":"U","NORAD_CAT_ID":24936,"ELEMENT_SET_NO":999,"REV_AT_EPOCH":5137,"BSTAR":0,"MEAN_MOTION_DOT":-2.74e-6,"MEAN_MOTION_DDOT":0},{"OBJECT_NAME":"USA 134","OBJECT_ID":"1997-065A","EPOCH":"2026-03-03T02:18:35.090208","MEAN_MOTION":1.00271057,"ECCENTRICITY":0.0007024,"INCLINATION":12.6588,"RA_OF_ASC_NODE":22.5081,"ARG_OF_PERICENTER":305.5371,"MEAN_ANOMALY":115.3615,"EPHEMERIS_TYPE":0,"CLASSIFICATION_TYPE":"U","NORAD_CAT_ID":25019,"ELEMENT_SET_NO":999,"REV_AT_EPOCH":3189,"BSTAR":0,"MEAN_MOTION_DOT":-7.3e-7,"MEAN_MOTION_DDOT":0},{"OBJECT_NAME":"INMARSAT 3-F5","OBJECT_ID":"1998-006B","EPOCH":"2026-03-02T20:42:14.552352","MEAN_MOTION":1.00268386,"ECCENTRICITY":0.0005367,"INCLINATION":9.4564,"RA_OF_ASC_NODE":54.3004,"ARG_OF_PERICENTER":293.166,"MEAN_ANOMALY":69.6941,"EPHEMERIS_TYPE":0,"CLASSIFICATION_TYPE":"U","NORAD_CAT_ID":25153,"ELEMENT_SET_NO":999,"REV_AT_EPOCH":10283,"BSTAR":0,"MEAN_MOTION_DOT":-3.02e-6,"MEAN_MOTION_DDOT":0},{"OBJECT_NAME":"ABS-6","OBJECT_ID":"1999-053A","EPOCH":"2026-03-02T18:08:51.440352","MEAN_MOTION":1.00272451,"ECCENTRICITY":0.00031325,"INCLINATION":0.0503,"RA_OF_ASC_NODE":261.4494,"ARG_OF_PERICENTER":58.9705,"MEAN_ANOMALY":271.3401,"EPHEMERIS_TYPE":0,"CLASSIFICATION_TYPE":"U","NORAD_CAT_ID":25924,"ELEMENT_SET_NO":999,"REV_AT_EPOCH":9677,"BSTAR":0,"MEAN_MOTION_DOT":-1.36e-6,"MEAN_MOTION_DDOT":0}]
